ISS (ZARYA)             
1 25544U 98067A   26027.14328214  .00011252  00000+0  21756-3 0  9996
2 25544  51.6321 277.7306 0011149  34.3982 325.7726 15.48216781549897
ISS (NAUKA)             
1 49044U 21066A   26027.14328214  .00011252  00000+0  21756-3 0  9992
2 49044  51.6321 277.7306 0011149  34.3982 325.7726 15.48216781230446
CSS (WENTIAN)           
1 53239U 22085A   26027.22862482  .00029284  00000+0  33868-3 0  9995
2 53239  41.4668 100.1488 0009610  12.9721 347.1363 15.61162625173848
CSS (MENGTIAN)          
1 54216U 22143A   26027.22862482  .00029284  00000+0  33868-3 0  9996
2 54216  41.4668 100.1488 0009610  12.9721 347.1363 15.61162625158645
PROGRESS-MS 31          
1 64751U 25146A   26027.14328214  .00011252  00000+0  21756-3 0  9997
2 64751  51.6321 277.7306 0011149  34.3982 325.7726 15.48216781  6753
TIANZHOU-9              
1 64786U 25149A   26027.22862482  .00029284  00000+0  33868-3 0  9998
2 64786  41.4668 100.1488 0009610  12.9721 347.1363 15.61162625255309
DRAGON CRS-33           
1 65304U 25186A   26027.14328214  .00011252  00000+0  21756-3 0  9996
2 65304  51.6321 277.7306 0011149  34.3982 325.7726 15.48216781   112
PROGRESS-MS 32          
1 65586U 25204A   26027.14328214  .00011252  00000+0  21756-3 0  9999
2 65586  51.6321 277.7306 0011149  34.3982 325.7726 15.48216781   271
CYGNUS NG-23            
1 65616U 25208A   26027.14328214  .00011252  00000+0  21756-3 0  9997
2 65616  51.6321 277.7306 0011149  34.3982 325.7726 15.48216781   220
DRAGONFLY               
1 65729U 98067XH  26027.03675090  .01369172  12082-2  15819-2 0  9996
2 65729  51.6094 259.6071 0007570 210.4381 149.6194 16.08462697 20346
